NORAD_CAT_ID,OBJECT_NAME,OBJECT_TYPE,EPOCH,MEAN_MOTION,ECCENTRICITY,INCLINATION,RA_OF_ASC_NODE,ARG_OF_PERICENTER,MEAN_ANOMALY,BSTAR,MEAN_MOTION_DOT,MEAN_MOTION_DDOT,TLE_LINE0,TLE_LINE1,TLE_LINE2,SEMIMAJOR_AXIS,PERIOD,APOGEE,PERIGEE,DECAYED
53859.0,STARLINK-4790,PAYLOAD,2023-04-08 05:00:56,15.10482759,0.0001436,53.2184,36.442,96.1492,263.9664,0.00021061,3.216e-05,0.0,0 STARLINK-4790,1 53859U 22114AT  23098.20898600  .00003216  00000-0  21061-3 0  9990,2 53859  53.2184  36.4420 0001436  96.1492 263.9664 15.10482759 32046,6912.864,95.334,535.721,533.736,0.0
53859.0,STARLINK-4790,PAYLOAD,2023-04-09 04:50:10,15.10479879,0.0001275,53.217,31.9754,98.7731,261.3407,0.00016257,2.415e-05,0.0,0 STARLINK-4790,1 53859U 22114AT  23099.20151112  .00002415  00000-0  16257-3 0  9992,2 53859  53.2170  31.9754 0001275  98.7731 261.3407 15.10479879 31658,6912.872,95.334,535.619,533.856,0.0
53859.0,STARLINK-4790,PAYLOAD,2023-04-09 19:07:43,15.10474555,0.0001321,53.2172,29.2965,87.8514,272.2631,8.6174e-05,1.142e-05,0.0,0 STARLINK-4790,1 53859U 22114AT  23099.79702835  .00001142  00000-0  86174-4 0  9992,2 53859  53.2172  29.2965 0001321  87.8514 272.2631 15.10474555 31740,6912.889,95.334,535.667,533.841,0.0
53859.0,STARLINK-4790,PAYLOAD,2023-04-10 04:39:24,15.10482008,0.0001328,53.2168,27.5092,85.4284,274.686,0.00020834,3.178e-05,0.0,0 STARLINK-4790,1 53859U 22114AT  23100.19403490  .00003178  00000-0  20834-3 0  9995,2 53859  53.2168  27.5092 0001328  85.4284 274.6860 15.10482008 32341,6912.866,95.334,535.649,533.813,0.0
53859.0,STARLINK-4790,PAYLOAD,2023-04-10 18:56:56,15.10488142,0.0001283,53.2167,24.8292,79.9525,280.1613,0.00028587,4.471e-05,0.0,0 STARLINK-4790,1 53859U 22114AT  23100.78954667  .00004471  00000-0  28587-3 0  9997,2 53859  53.2167  24.8292 0001283  79.9525 280.1613 15.10488142 31890,6912.847,95.333,535.599,533.825,0.0
53859.0,STARLINK-4790,PAYLOAD,2023-04-11 04:28:37,15.10500444,0.0001229,53.2166,23.0428,85.6502,274.4631,0.00045771,7.34e-05,0.0,0 STARLINK-4790,1 53859U 22114AT  23101.18654747  .00007340  00000-0  45771-3 0  9990,2 53859  53.2166  23.0428 0001229  85.6502 274.4631 15.10500444 32493,6912.81,95.333,535.524,533.825,0.0
53859.0,STARLINK-4790,PAYLOAD,2023-04-12 02:42:45,15.10191812,0.0001527,53.2182,18.8756,110.3877,249.728,-0.0055832,-0.00091345,0.0,0 STARLINK-4790,1 53859U 22114AT  23102.11302972 -.00091345  00000-0 -55832-2 0  9992,2 53859  53.2182  18.8756 0001527 110.3877 249.7280 15.10191812 32095,6913.752,95.352,536.672,534.561,0.0
53859.0,STARLINK-4790,PAYLOAD,2023-04-12 20:11:23,15.09801228,0.0001282,53.2178,15.6001,140.4203,219.6884,-0.0081002,-0.00130269,0.0,0 STARLINK-4790,1 53859U 22114AT  23102.84124732 -.00130269  00000-0 -81002-2 0  9995,2 53859  53.2178  15.6001 0001282 140.4203 219.6884 15.09801228 32209,6914.944,95.377,537.695,535.922,0.0
53859.0,STARLINK-4790,PAYLOAD,2023-04-13 12:00:00,15.08834572,0.0001415,53.2176,12.6424,92.3468,248.1784,-0.00025701,-4.375e-05,0.0,0 STARLINK-4790,1 53859U 22114AT  23103.50001157 -.00004375  00000-0 -25701-3 0  9997,2 53859  53.2176  12.6424 0001415  92.3468 248.1784 15.08834572  1309,6917.897,95.438,540.741,538.783,0.0
53859.0,STARLINK-4790,PAYLOAD,2023-04-14 14:00:01,15.08809377,0.0001204,53.2173,7.7788,110.8426,357.4096,0.0042475,0.00067905,0.0,0 STARLINK-4790,1 53859U 22114AT  23104.58335648  .00067905  00000-0  42475-2 0  9993,2 53859  53.2173   7.7788 0001204 110.8426 357.4096 15.08809377  1305,6917.974,95.439,540.672,539.006,0.0
53859.0,STARLINK-4790,PAYLOAD,2023-04-14 18:00:00,15.08849631,0.0001239,53.2175,7.0308,110.9497,183.028,0.0022061,0.00035006,0.0,0 STARLINK-4790,1 53859U 22114AT  23104.75001157  .00035006  00000-0  22061-2 0  9993,2 53859  53.2175   7.0308 0001239 110.9497 183.0280 15.08849631 32483,6917.851,95.437,540.573,538.859,0.0
53859.0,STARLINK-4790,PAYLOAD,2023-04-15 14:00:01,15.08787367,0.0001042,53.2169,3.2898,95.0346,47.952,0.0045142,0.00072187,0.0,0 STARLINK-4790,1 53859U 22114AT  23105.58334491  .00072187  00000-0  45142-2 0  9991,2 53859  53.2169   3.2898 0001042  95.0346  47.9520 15.08787367  1305,6918.041,95.441,540.627,539.185,0.0
53859.0,STARLINK-4790,PAYLOAD,2023-04-15 22:00:01,15.08858537,0.0001085,53.217,1.7948,85.1974,69.4067,-0.0028184,-0.00044885,0.0,0 STARLINK-4790,1 53859U 22114AT  23105.91668981 -.00044885  00000-0 -28184-2 0  9995,2 53859  53.2170   1.7948 0001085  85.1974  69.4067 15.08858537  1303,6917.824,95.436,540.439,538.938,0.0
53859.0,STARLINK-4790,PAYLOAD,2023-04-16 10:00:00,15.08823222,0.0001024,53.2167,359.5496,77.1811,274.7566,0.00084986,0.00013257,0.0,0 STARLINK-4790,1 53859U 22114AT  23106.41667824  .00013257  00000-0  84986-3 0  9996,2 53859  53.2167 359.5496 0001024  77.1811 274.7566 15.08823222  1303,6917.932,95.439,540.505,539.088,0.0
53859.0,STARLINK-4790,PAYLOAD,2023-04-16 22:00:00,15.0888491,0.0001121,53.2167,357.306,80.0468,109.2609,-0.0051134,-0.00080853,0.0,0 STARLINK-4790,1 53859U 22114AT  23106.91667824 -.00080853  00000-0 -51134-2 0  9997,2 53859  53.2167 357.3060 0001121  80.0468 109.2609 15.08884910  1306,6917.743,95.435,540.384,538.833,0.0
53859.0,STARLINK-4790,PAYLOAD,2023-04-17 01:56:02,15.08849255,0.0001244,53.217,356.5688,75.6899,284.4232,0.00072781,0.00011317,0.0,0 STARLINK-4790,1 53859U 22114AT  23107.08058401  .00011317  00000-0  72781-3 0  9990,2 53859  53.2170 356.5688 0001244  75.6899 284.4232 15.08849255 33385,6917.852,95.437,540.578,538.857,0.0
53859.0,STARLINK-4790,PAYLOAD,2023-04-17 21:00:40,15.08842765,0.0001179,53.2165,352.9984,86.7408,273.3719,0.00026082,3.866e-05,0.0,0 STARLINK-4790,1 53859U 22114AT  23107.87546407  .00003866  00000-0  26082-3 0  9998,2 53859  53.2165 352.9984 0001179  86.7408 273.3719 15.08842765 33504,6917.872,95.437,540.553,538.921,0.0
53859.0,STARLINK-4790,PAYLOAD,2023-04-18 01:46:49,15.08850901,0.000108,53.2168,352.1062,92.9505,267.1611,0.00040811,6.215e-05,0.0,0 STARLINK-4790,1 53859U 22114AT  23108.07418118  .00006215  00000-0  40811-3 0  9995,2 53859  53.2168 352.1062 0001080  92.9505 267.1611 15.08850901 33530,6917.847,95.437,540.459,538.965,0.0
53859.0,STARLINK-4790,PAYLOAD,2023-04-19 01:37:36,15.0884403,0.0001188,53.2173,347.6467,85.4651,274.6477,0.00026415,3.919e-05,0.0,0 STARLINK-4790,1 53859U 22114AT  23109.06778583  .00003919  00000-0  26415-3 0  9992,2 53859  53.2173 347.6467 0001188  85.4651 274.6477 15.08844030 33148,6917.868,95.437,540.555,538.911,0.0
53859.0,STARLINK-4790,PAYLOAD,2023-04-20 01:28:23,15.08854418,0.0001168,53.2169,343.1863,82.0363,278.0761,0.00048197,7.394e-05,0.0,0 STARLINK-4790,1 53859U 22114AT  23110.06138414  .00007394  00000-0  48197-3 0  9999,2 53859  53.2169 343.1863 0001168  82.0363 278.0761 15.08854418 33836,6917.836,95.437,540.509,538.893,0.0
53859.0,STARLINK-4790,PAYLOAD,2023-04-20 22:08:24,15.08842207,0.0001274,53.2177,339.3175,80.3369,279.7767,0.0002126,3.097e-05,0.0,0 STARLINK-4790,1 53859U 22114AT  23110.92250725  .00003097  00000-0  21260-3 0  9992,2 53859  53.2177 339.3175 0001274  80.3369 279.7767 15.08842207 33964,6917.874,95.437,540.62,538.857,0.0
53859.0,STARLINK-4790,PAYLOAD,2023-04-21 01:19:10,15.08845448,9.48e-05,53.2161,338.7266,82.4614,277.6486,0.00020392,2.96e-05,0.0,0 STARLINK-4790,1 53859U 22114AT  23111.05498668  .00002960  00000-0  20392-3 0  9990,2 53859  53.2161 338.7266 0000948  82.4614 277.6486 15.08845448 33442,6917.864,95.437,540.385,539.073,0.0
53859.0,STARLINK-4790,PAYLOAD,2023-04-21 14:02:16,15.08840165,0.0001003,53.216,336.349,92.907,267.2037,8.0286e-05,9.9e-06,0.0,0 STARLINK-4790,1 53859U 22114AT  23111.58490832  .00000990  00000-0  80286-4 0  9993,2 53859  53.2160 336.3490 0001003  92.9070 267.2037 15.08840165 34066,6917.88,95.438,540.439,539.051,0.0
53859.0,STARLINK-4790,PAYLOAD,2023-04-21 21:59:11,15.08844202,9.84e-05,53.2156,334.8621,93.2744,266.8361,7.9969e-05,9.85e-06,0.0,0 STARLINK-4790,1 53859U 22114AT  23111.91610662  .00000985  00000-0  79969-4 0  9995,2 53859  53.2156 334.8621 0000984  93.2744 266.8361 15.08844202 34116,6917.868,95.437,540.413,539.052,0.0
53859.0,STARLINK-4790,PAYLOAD,2023-04-22 13:53:03,15.08839085,8.02e-05,53.2158,331.8877,85.417,274.6914,0.00011429,1.532e-05,0.0,0 STARLINK-4790,1 53859U 22114AT  23112.57850853  .00001532  00000-0  11429-3 0  9991,2 53859  53.2158 331.8877 0000802  85.4170 274.6914 15.08839085 34218,6917.883,95.438,540.303,539.193,0.0
53859.0,STARLINK-4790,PAYLOAD,2023-04-22 15:28:26,15.08839324,8.32e-05,53.2161,331.59,85.4825,274.6263,4.4203e-05,4.16e-06,0.0,0 STARLINK-4790,1 53859U 22114AT  23112.64474923  .00000416  00000-0  44203-4 0  9996,2 53859  53.2161 331.5900 0000832  85.4825 274.6263 15.08839324 34220,6917.882,95.438,540.323,539.172,0.0
53859.0,STARLINK-4790,PAYLOAD,2023-04-23 13:43:50,15.08837911,0.0001037,53.2169,327.4283,109.538,250.5724,7.3671e-05,8.85e-06,0.0,0 STARLINK-4790,1 53859U 22114AT  23113.57211007  .00000885  00000-0  73671-4 0  9992,2 53859  53.2169 327.4283 0001037 109.5380 250.5724 15.08837911 34368,6917.887,95.438,540.469,539.034,0.0
53859.0,STARLINK-4790,PAYLOAD,2023-04-23 15:19:13,15.08835496,9.54e-05,53.2176,327.131,102.1568,257.9531,1.6763e-05,-2.1e-07,0.0,0 STARLINK-4790,1 53859U 22114AT  23113.63835184 -.00000021  00000-0  16763-4 0  9999,2 53859  53.2176 327.1310 0000954 102.1568 257.9531 15.08835496 34372,6917.894,95.438,540.419,539.099,0.0
53859.0,STARLINK-4790,PAYLOAD,2023-04-24 13:34:36,15.08859305,9.43e-05,53.2171,322.9669,79.8273,280.2825,0.00039336,5.981e-05,0.0,0 STARLINK-4790,1 53859U 22114AT  23114.56570022  .00005981  00000-0  39336-3 0  9998,2 53859  53.2171 322.9669 0000943  79.8273 280.2825 15.08859305 33973,6917.821,95.436,540.339,539.034,0.0
53859.0,STARLINK-4790,PAYLOAD,2023-04-25 13:25:25,15.08820024,0.0001305,53.2168,318.5064,306.1733,53.9139,-0.00025167,-4.289e-05,0.0,0 STARLINK-4790,1 53859U 22114AT  23115.55931715 -.00004289  00000-0 -25167-3 0  9997,2 53859  53.2168 318.5064 0001305 306.1733  53.9139 15.08820024 34665,6917.941,95.439,540.709,538.904,0.0
